{
  "type": "FeatureCollection",
  "features": [
    {
      "type": "Feature",
      "properties": {
        "norad_id": 66509,
        "name": "STARLINK-35598",
        "group": "last-30-days",
        "lat": 40.37748505074506,
        "lon": -162.7977801456472,
        "alt_km": 409.7693408653922,
        "timestamp": "2025-12-11T15:53:38.292844+00:00",
        "meta_object_name": "STARLINK-35598",
        "meta_object_id": "2025-263AA",
        "meta_epoch": "2025-12-11T06:00:02.999808",
        "meta_mean_motion": 15.50616648,
        "meta_eccentricity": 0.0001618,
        "meta_inclination": 43.0005,
        "meta_ra_of_asc_node": 133.7513,
        "meta_arg_of_pericenter": 265.6512,
        "meta_mean_anomaly": 22.4448,
        "meta_ephemeris_type": 0,
        "meta_classification_type": "U",
        "meta_norad_cat_id": 66509,
        "meta_element_set_no": 999,
        "meta_rev_at_epoch": 539,
        "meta_bstar": -0.0015161408,
        "meta_mean_motion_dot": -0.00088409,
        "meta_mean_motion_ddot": 0,
        "tle_line1": "1 66509U 25263AA  25345.25003472 -.00088409  00000+0 -15161-2 0  9992",
        "tle_line2": "2 66509  43.0005 133.7513 0001618 265.6512  22.4448 15.50616648  5399"
      },
      "geometry": {
        "type": "Point",
        "coordinates": [
          -162.7977801456472,
          40.37748505074506
        ]
      }
    },
    {
      "type": "Feature",
      "properties": {
        "norad_id": 66510,
        "name": "STARLINK-35600",
        "group": "last-30-days",
        "lat": 38.55052096775105,
        "lon": -169.87046540834515,
        "alt_km": 410.05775225588604,
        "timestamp": "2025-12-11T15:53:38.292854+00:00",
        "meta_object_name": "STARLINK-35600",
        "meta_object_id": "2025-263AB",
        "meta_epoch": "2025-12-11T06:00:02.999808",
        "meta_mean_motion": 15.50599418,
        "meta_eccentricity": 0.00016074,
        "meta_inclination": 43.0006,
        "meta_ra_of_asc_node": 133.7661,
        "meta_arg_of_pericenter": 253.6213,
        "meta_mean_anomaly": 28.7265,
        "meta_ephemeris_type": 0,
        "meta_classification_type": "U",
        "meta_norad_cat_id": 66510,
        "meta_element_set_no": 999,
        "meta_rev_at_epoch": 539,
        "meta_bstar": -0.0010480225,
        "meta_mean_motion_dot": -0.00061389,
        "meta_mean_motion_ddot": 0,
        "tle_line1": "1 66510U 25263AB  25345.25003472 -.00061389  00000+0 -10480-2 0  9991",
        "tle_line2": "2 66510  43.0006 133.7661 0001607 253.6213  28.7265 15.50599418  5390"
      },
      "geometry": {
        "type": "Point",
        "coordinates": [
          -169.87046540834515,
          38.55052096775105
        ]
      }
    },
    {
      "type": "Feature",
      "properties": {
        "norad_id": 66511,
        "name": "STARLINK-35444",
        "group": "last-30-days",
        "lat": 39.81513434018794,
        "lon": -165.20187801527055,
        "alt_km": 409.81285902811396,
        "timestamp": "2025-12-11T15:53:38.292864+00:00",
        "meta_object_name": "STARLINK-35444",
        "meta_object_id": "2025-263AC",
        "meta_epoch": "2025-12-11T06:00:02.999808",
        "meta_mean_motion": 15.50601227,
        "meta_eccentricity": 0.00015477,
        "meta_inclination": 43.0006,
        "meta_ra_of_asc_node": 133.7572,
        "meta_arg_of_pericenter": 260.7401,
        "meta_mean_anomaly": 25.4411,
        "meta_ephemeris_type": 0,
        "meta_classification_type": "U",
        "meta_norad_cat_id": 66511,
        "meta_element_set_no": 999,
        "meta_rev_at_epoch": 539,
        "meta_bstar": -0.001123383,
        "meta_mean_motion_dot": -0.00065747,
        "meta_mean_motion_ddot": 0,
        "tle_line1": "1 66511U 25263AC  25345.25003472 -.00065747  00000+0 -11234-2 0  9992",
        "tle_line2": "2 66511  43.0006 133.7572 0001547 260.7401  25.4411 15.50601227  5392"
      },
      "geometry": {
        "type": "Point",
        "coordinates": [
          -165.20187801527055,
          39.81513434018794
        ]
      }
    },
    {
      "type": "Feature",
      "properties": {
        "norad_id": 66512,
        "name": "STARLINK-35366",
        "group": "last-30-days",
        "lat": 40.885584422388185,
        "lon": -160.3710308455021,
        "alt_km": 409.6756123656651,
        "timestamp": "2025-12-11T15:53:38.292875+00:00",
        "meta_object_name": "STARLINK-35366",
        "meta_object_id": "2025-263AD",
        "meta_epoch": "2025-12-11T06:00:02.999808",
        "meta_mean_motion": 15.50600027,
        "meta_eccentricity": 0.00016119,
        "meta_inclination": 43.0005,
        "meta_ra_of_asc_node": 133.7471,
        "meta_arg_of_pericenter": 265.5918,
        "meta_mean_anomaly": 24.4234,
        "meta_ephemeris_type": 0,
        "meta_classification_type": "U",
        "meta_norad_cat_id": 66512,
        "meta_element_set_no": 999,
        "meta_rev_at_epoch": 539,
        "meta_bstar": -0.0010402057,
        "meta_mean_motion_dot": -0.00060939,
        "meta_mean_motion_ddot": 0,
        "tle_line1": "1 66512U 25263AD  25345.25003472 -.00060939  00000+0 -10402-2 0  9997",
        "tle_line2": "2 66512  43.0005 133.7471 0001611 265.5918  24.4234 15.50600027  5397"
      },
      "geometry": {
        "type": "Point",
        "coordinates": [
          -160.3710308455021,
          40.885584422388185
        ]
      }
    },
    {
      "type": "Feature",
      "properties": {
        "norad_id": 66513,
        "name": "STARLINK-35692",
        "group": "last-30-days",
        "lat": 39.20738049221659,
        "lon": -167.5526894617919,
        "alt_km": 409.94219673432417,
        "timestamp": "2025-12-11T15:53:38.292886+00:00",
        "meta_object_name": "STARLINK-35692",
        "meta_object_id": "2025-263AE",
        "meta_epoch": "2025-12-11T06:00:02.999808",
        "meta_mean_motion": 15.50629081,
        "meta_eccentricity": 0.00015979,
        "meta_inclination": 43.0006,
        "meta_ra_of_asc_node": 133.7619,
        "meta_arg_of_pericenter": 260.7122,
        "meta_mean_anomaly": 23.5359,
        "meta_ephemeris_type": 0,
        "meta_classification_type": "U",
        "meta_norad_cat_id": 66513,
        "meta_element_set_no": 999,
        "meta_rev_at_epoch": 539,
        "meta_bstar": -0.0017538051,
        "meta_mean_motion_dot": -0.00102082,
        "meta_mean_motion_ddot": 0,
        "tle_line1": "1 66513U 25263AE  25345.25003472 -.00102082  00000+0 -17538-2 0  9991",
        "tle_line2": "2 66513  43.0006 133.7619 0001597 260.7122  23.5359 15.50629081  5399"
      },
      "geometry": {
        "type": "Point",
        "coordinates": [
          -167.5526894617919,
          39.20738049221659
        ]
      }
    },
    {
      "type": "Feature",
      "properties": {
        "norad_id": 66514,
        "name": "SENTINEL-6B",
        "group": "last-30-days",
        "lat": -4.772229469368598,
        "lon": -13.216062868318403,
        "alt_km": 1325.5146456676466,
        "timestamp": "2025-12-11T15:53:38.292900+00:00",
        "meta_object_name": "SENTINEL-6B",
        "meta_object_id": "2025-264A",
        "meta_epoch": "2025-12-08T23:22:28.347744",
        "meta_mean_motion": 12.8403254,
        "meta_eccentricity": 0.00210881,
        "meta_inclination": 66.0391,
        "meta_ra_of_asc_node": 170.2706,
        "meta_arg_of_pericenter": 268.225,
        "meta_mean_anomaly": 91.6352,
        "meta_ephemeris_type": 0,
        "meta_classification_type": "U",
        "meta_norad_cat_id": 66514,
        "meta_element_set_no": 999,
        "meta_rev_at_epoch": 280,
        "meta_bstar": -0.0054273268,
        "meta_mean_motion_dot": -1.368e-05,
        "meta_mean_motion_ddot": 0,
        "tle_line1": "1 66514U 25264A   25342.97393921 -.00001368  00000+0 -54273-2 0  9992",
        "tle_line2": "2 66514  66.0391 170.2706 0021088 268.2250  91.6352 12.84032540  2801"
      },
      "geometry": {
        "type": "Point",
        "coordinates": [
          -13.216062868318403,
          -4.772229469368598
        ]
      }
    },
    {
      "type": "Feature",
      "properties": {
        "norad_id": 66516,
        "name": "STARLINK-35924",
        "group": "last-30-days",
        "lat": -28.833566072911083,
        "lon": -83.44171002285631,
        "alt_km": 431.45642727285394,
        "timestamp": "2025-12-11T15:53:38.292910+00:00",
        "meta_object_name": "STARLINK-35924",
        "meta_object_id": "2025-265A",
        "meta_epoch": "2025-12-11T06:00:02.999808",
        "meta_mean_motion": 15.47445693,
        "meta_eccentricity": 0.00012738,
        "meta_inclination": 43.0005,
        "meta_ra_of_asc_node": 62.7436,
        "meta_arg_of_pericenter": 270.589,
        "meta_mean_anomaly": 176.663,
        "meta_ephemeris_type": 0,
        "meta_classification_type": "U",
        "meta_norad_cat_id": 66516,
        "meta_element_set_no": 999,
        "meta_rev_at_epoch": 473,
        "meta_bstar": -0.044123651,
        "meta_mean_motion_dot": -0.02061098,
        "meta_mean_motion_ddot": 0,
        "tle_line1": "1 66516U 25265A   25345.25003472 -.02061098  00000+0 -44124-1 0  9999",
        "tle_line2": "2 66516  43.0005  62.7436 0001273 270.5890 176.6630 15.47445693  4731"
      },
      "geometry": {
        "type": "Point",
        "coordinates": [
          -83.44171002285631,
          -28.833566072911083
        ]
      }
    }
  ]
}